{
  "type": "FeatureCollection",
  "features": [
    {
      "type": "Feature",
      "properties": {
        "norad_id": 41581,
        "name": "INTELSAT 31 (IS-31)",
        "group": "intelsat",
        "lat": -0.00232206197231741,
        "lon": 111.26165211295313,
        "alt_km": 35789.31415637393,
        "timestamp": "2025-12-02T08:59:32.387561+00:00",
        "meta_object_name": "INTELSAT 31 (IS-31)",
        "meta_object_id": "2016-035A",
        "meta_epoch": "2025-12-02T03:03:32.131008",
        "meta_mean_motion": 1.00269746,
        "meta_eccentricity": 0.0001912,
        "meta_inclination": 0.0151,
        "meta_ra_of_asc_node": 270.5944,
        "meta_arg_of_pericenter": 309.5464,
        "meta_mean_anomaly": 161.9273,
        "meta_ephemeris_type": 0,
        "meta_classification_type": "U",
        "meta_norad_cat_id": 41581,
        "meta_element_set_no": 999,
        "meta_rev_at_epoch": 3470,
        "meta_bstar": 0,
        "meta_mean_motion_dot": -1.3e-06,
        "meta_mean_motion_ddot": 0,
        "tle_line1": "1 41581U 16035A   25336.12745522 -.00000130  00000+0  00000+0 0  9994",
        "tle_line2": "2 41581   0.0151 270.5944 0001912 309.5464 161.9273  1.00269746 34701"
      },
      "geometry": {
        "type": "Point",
        "coordinates": [
          111.26165211295313,
          -0.00232206197231741
        ]
      }
    },
    {
      "type": "Feature",
      "properties": {
        "norad_id": 41747,
        "name": "INTELSAT 36 (IS-36)",
        "group": "intelsat",
        "lat": -0.02494016135049371,
        "lon": -85.14951065241469,
        "alt_km": 35778.38440588698,
        "timestamp": "2025-12-02T08:59:32.387572+00:00",
        "meta_object_name": "INTELSAT 36 (IS-36)",
        "meta_object_id": "2016-053A",
        "meta_epoch": "2025-12-01T21:50:38.751936",
        "meta_mean_motion": 1.00278088,
        "meta_eccentricity": 0.0001727,
        "meta_inclination": 0.0108,
        "meta_ra_of_asc_node": 342.6383,
        "meta_arg_of_pericenter": 327.7333,
        "meta_mean_anomaly": 156.8269,
        "meta_ephemeris_type": 0,
        "meta_classification_type": "U",
        "meta_norad_cat_id": 41747,
        "meta_element_set_no": 999,
        "meta_rev_at_epoch": 3397,
        "meta_bstar": 0,
        "meta_mean_motion_dot": -5e-08,
        "meta_mean_motion_ddot": 0,
        "tle_line1": "1 41747U 16053A   25335.91017074 -.00000005  00000+0  00000+0 0  9999",
        "tle_line2": "2 41747   0.0108 342.6383 0001727 327.7333 156.8269  1.00278088 33971"
      },
      "geometry": {
        "type": "Point",
        "coordinates": [
          -85.14951065241469,
          -0.02494016135049371
        ]
      }
    },
    {
      "type": "Feature",
      "properties": {
        "norad_id": 41945,
        "name": "INTELSAT 32E (IS-32E)",
        "group": "intelsat",
        "lat": 0.0019134118373514489,
        "lon": 163.17239950329602,
        "alt_km": 35786.91359537279,
        "timestamp": "2025-12-02T08:59:32.387584+00:00",
        "meta_object_name": "INTELSAT 32E (IS-32E)",
        "meta_object_id": "2017-007B",
        "meta_epoch": "2025-12-02T03:18:20.977920",
        "meta_mean_motion": 1.00270118,
        "meta_eccentricity": 8.4e-06,
        "meta_inclination": 0.0227,
        "meta_ra_of_asc_node": 55.6817,
        "meta_arg_of_pericenter": 304.3916,
        "meta_mean_anomaly": 77.5977,
        "meta_ephemeris_type": 0,
        "meta_classification_type": "U",
        "meta_norad_cat_id": 41945,
        "meta_element_set_no": 999,
        "meta_rev_at_epoch": 3224,
        "meta_bstar": 0,
        "meta_mean_motion_dot": -2.48e-06,
        "meta_mean_motion_ddot": 0,
        "tle_line1": "1 41945U 17007B   25336.13774280 -.00000248  00000+0  00000+0 0  9992",
        "tle_line2": "2 41945   0.0227  55.6817 0000084 304.3916  77.5977  1.00270118 32249"
      },
      "geometry": {
        "type": "Point",
        "coordinates": [
          163.17239950329602,
          0.0019134118373514489
        ]
      }
    },
    {
      "type": "Feature",
      "properties": {
        "norad_id": 42818,
        "name": "INTELSAT 35E (IS-35E)",
        "group": "intelsat",
        "lat": -0.02645131431162942,
        "lon": 171.83674395250867,
        "alt_km": 35783.65044436142,
        "timestamp": "2025-12-02T08:59:32.387595+00:00",
        "meta_object_name": "INTELSAT 35E (IS-35E)",
        "meta_object_id": "2017-041A",
        "meta_epoch": "2025-12-02T03:20:50.740224",
        "meta_mean_motion": 1.00273188,
        "meta_eccentricity": 0.0002347,
        "meta_inclination": 0.0173,
        "meta_ra_of_asc_node": 312.6291,
        "meta_arg_of_pericenter": 297.2688,
        "meta_mean_anomaly": 197.0874,
        "meta_ephemeris_type": 0,
        "meta_classification_type": "U",
        "meta_norad_cat_id": 42818,
        "meta_element_set_no": 999,
        "meta_rev_at_epoch": 3084,
        "meta_bstar": 0,
        "meta_mean_motion_dot": -2.17e-06,
        "meta_mean_motion_ddot": 0,
        "tle_line1": "1 42818U 17041A   25336.13947616 -.00000217  00000+0  00000+0 0  9991",
        "tle_line2": "2 42818   0.0173 312.6291 0002347 297.2688 197.0874  1.00273188 30849"
      },
      "geometry": {
        "type": "Point",
        "coordinates": [
          171.83674395250867,
          -0.02645131431162942
        ]
      }
    },
    {
      "type": "Feature",
      "properties": {
        "norad_id": 42950,
        "name": "INTELSAT 37E (IS-37E)",
        "group": "intelsat",
        "lat": -0.03283205986389471,
        "lon": -171.68641182768016,
        "alt_km": 35778.355014769964,
        "timestamp": "2025-12-02T08:59:32.387606+00:00",
        "meta_object_name": "INTELSAT 37E (IS-37E)",
        "meta_object_id": "2017-059A",
        "meta_epoch": "2025-12-02T02:44:38.740128",
        "meta_mean_motion": 1.00271022,
        "meta_eccentricity": 0.000339,
        "meta_inclination": 0.0128,
        "meta_ra_of_asc_node": 290.8013,
        "meta_arg_of_pericenter": 313.8771,
        "meta_mean_anomaly": 209.7169,
        "meta_ephemeris_type": 0,
        "meta_classification_type": "U",
        "meta_norad_cat_id": 42950,
        "meta_element_set_no": 999,
        "meta_rev_at_epoch": 3009,
        "meta_bstar": 0,
        "meta_mean_motion_dot": -1.19e-06,
        "meta_mean_motion_ddot": 0,
        "tle_line1": "1 42950U 17059A   25336.11433727 -.00000119  00000+0  00000+0 0  9999",
        "tle_line2": "2 42950   0.0128 290.8013 0003390 313.8771 209.7169  1.00271022 30092"
      },
      "geometry": {
        "type": "Point",
        "coordinates": [
          -171.68641182768016,
          -0.03283205986389471
        ]
      }
    },
    {
      "type": "Feature",
      "properties": {
        "norad_id": 43632,
        "name": "AZERSPACE 2 (IS-38)",
        "group": "intelsat",
        "lat": -0.022010906423048895,
        "lon": -108.55120262594592,
        "alt_km": 35779.17999817666,
        "timestamp": "2025-12-02T08:59:32.387618+00:00",
        "meta_object_name": "AZERSPACE 2 (IS-38)",
        "meta_object_id": "2018-074A",
        "meta_epoch": "2025-12-02T03:43:33.563712",
        "meta_mean_motion": 1.00270954,
        "meta_eccentricity": 0.000168,
        "meta_inclination": 0.003,
        "meta_ra_of_asc_node": 345.5003,
        "meta_arg_of_pericenter": 267.9964,
        "meta_mean_anomaly": 278.7706,
        "meta_ephemeris_type": 0,
        "meta_classification_type": "U",
        "meta_norad_cat_id": 43632,
        "meta_element_set_no": 999,
        "meta_rev_at_epoch": 2647,
        "meta_bstar": 0,
        "meta_mean_motion_dot": 1.57e-06,
        "meta_mean_motion_ddot": 0,
        "tle_line1": "1 43632U 18074A   25336.15524958  .00000157  00000+0  00000+0 0  9997",
        "tle_line2": "2 43632   0.0030 345.5003 0001680 267.9964 278.7706  1.00270954 26475"
      },
      "geometry": {
        "type": "Point",
        "coordinates": [
          -108.55120262594592,
          -0.022010906423048895
        ]
      }
    },
    {
      "type": "Feature",
      "properties": {
        "norad_id": 43633,
        "name": "HORIZONS-3E",
        "group": "intelsat",
        "lat": 0.022382809330699343,
        "lon": 15.368269853605476,
        "alt_km": 35786.97916289542,
        "timestamp": "2025-12-02T08:59:32.387629+00:00",
        "meta_object_name": "HORIZONS-3E",
        "meta_object_id": "2018-074B",
        "meta_epoch": "2025-12-01T18:02:30.823296",
        "meta_mean_motion": 1.00268041,
        "meta_eccentricity": 7.08e-05,
        "meta_inclination": 0.0287,
        "meta_ra_of_asc_node": 212.6289,
        "meta_arg_of_pericenter": 75.528,
        "meta_mean_anomaly": 222.3695,
        "meta_ephemeris_type": 0,
        "meta_classification_type": "U",
        "meta_norad_cat_id": 43633,
        "meta_element_set_no": 999,
        "meta_rev_at_epoch": 2636,
        "meta_bstar": 0,
        "meta_mean_motion_dot": -9e-08,
        "meta_mean_motion_ddot": 0,
        "tle_line1": "1 43633U 18074B   25335.75174564 -.00000009  00000+0  00000+0 0  9994",
        "tle_line2": "2 43633   0.0287 212.6289 0000708  75.5280 222.3695  1.00268041 26368"
      },
      "geometry": {
        "type": "Point",
        "coordinates": [
          15.368269853605476,
          0.022382809330699343
        ]
      }
    }
  ]
}